[{"OBJECT_NAME":"STARLINK-2029","OBJECT_ID":"2021-036AW","EPOCH":"2026-03-10T00:00:02.999808","MEAN_MOTION":15.21612256,"ECCENTRICITY":0.00015554,"INCLINATION":53.1203,"RA_OF_ASC_NODE":99.8001,"ARG_OF_PERICENTER":84.4684,"MEAN_ANOMALY":239.4047,"EPHEMERIS_TYPE":0,"CLASSIFICATION_TYPE":"U","NORAD_CAT_ID":48320,"ELEMENT_SET_NO":999,"REV_AT_EPOCH":574,"BSTAR":0.039856739,"MEAN_MOTION_DOT":0.00990666,"MEAN_MOTION_DDOT":0},{"OBJECT_NAME":"KUIPER-00223","OBJECT_ID":"2026-030V","EPOCH":"2026-03-09T17:18:46.022400","MEAN_MOTION":15.34146211,"ECCENTRICITY":0.00128242,"INCLINATION":51.8827,"RA_OF_ASC_NODE":219.2782,"ARG_OF_PERICENTER":59.0052,"MEAN_ANOMALY":301.2192,"EPHEMERIS_TYPE":0,"CLASSIFICATION_TYPE":"U","NORAD_CAT_ID":67783,"ELEMENT_SET_NO":999,"REV_AT_EPOCH":509,"BSTAR":0.00090645373,"MEAN_MOTION_DOT":0.00030225,"MEAN_MOTION_DDOT":0}]
